COSMOS 2433 (720)       
1 32275U 07052A   24112.90794432 -.00000048  00000+0  00000+0 0  9992
2 32275  65.9535 342.2609 0001010 291.1124  68.9375  2.13104163128305
COSMOS 2432 (719)       
1 32276U 07052B   24113.21646453 -.00000047  00000+0  00000+0 0  9996
2 32276  65.9679 342.3633 0010293 338.0160 205.1400  2.13103392128337
COSMOS 2434 (721)       
1 32393U 07065A   24113.45933818  .00000000  00000+0  00000+0 0  9998
2 32393  64.3216 218.4624 0002484  80.4136 234.6938  2.13103224127026
COSMOS 2436 (723)       
1 32395U 07065C   24113.36755578 -.00000001  00000+0  00000+0 0  9997
2 32395  64.3302 218.5295 0016188   1.5546  18.3870  2.13102992126981
COSMOS 2456 (730)       
1 36111U 09070A   24113.55053663  .00000049  00000+0  00000+0 0  9993
2 36111  64.5896  97.8652 0006312 306.2125 234.4555  2.13099130111683
COSMOS 2457 (733)       
1 36112U 09070B   24113.77606557  .00000048  00000+0  00000+0 0  9993
2 36112  64.5739  97.7174 0002925 200.4987 285.7960  2.13101295111691
COSMOS 2460 (732)       
1 36402U 10007C   24113.38953333 -.00000045  00000+0  00000+0 0  9999
2 36402  65.8109 340.9205 0002438  42.6496 138.3174  2.13106367109980
COSMOS 2476 (744)       
1 37867U 11064A   24113.53443990  .00000053  00000+0  00000+0 0  9997
2 37867  64.8643  99.4800 0024266 241.8796 197.7852  2.13101728 97023
COSMOS 2477 (745)       
1 37868U 11064B   24113.29975726  .00000055  00000+0  00000+0 0  9990
2 37868  64.8766  99.5594 0021470 243.5447 193.8584  2.13103321 97016
COSMOS 2475 (743)       
1 37869U 11064C   24113.48436966  .00000054  00000+0  00000+0 0  9999
2 37869  64.8786  99.5681 0026698 256.8109 280.8644  2.13101901 97022
COSMOS 2485 (747)       
1 39155U 13019A   24113.84171305  .00000054  00000+0  00000+0 0  9994
2 39155  65.0225 100.0423 0024401 238.0599 121.7018  2.13101863 85549
COSMOS 2492 (754)       
1 39620U 14012A   24113.32800116 -.00000045  00000+0  00000+0 0  9998
2 39620  65.6930 340.5077 0012995 331.3345  28.6548  2.13103290 78497
COSMOS 2500 (755)       
1 40001U 14032A   24113.03888176 -.00000046  00000+0  00000+0 0  9996
2 40001  65.6307 340.3269 0004467 192.1814 167.8678  2.13106231 76700
COSMOS 2501 (702K)      
1 40315U 14075A   24113.29137325 -.00000001  00000+0  00000+0 0  9993
2 40315  63.6236 217.6191 0019669 207.2800 152.6261  2.13101528 73105
COSMOS 2514 (751)       
1 41330U 16008A   24113.27360163 -.00000045  00000+0  00000+0 0  9993
2 41330  65.4258 339.8425 0008192 206.8230 153.1944  2.13102780 63873
COSMOS 2522 (752)       
1 42939U 17055A   24113.11418356 -.00000005  00000+0  00000+0 0  9999
2 42939  64.0844 218.6836 0007832 235.3702 124.5623  2.13101906 51227
COSMOS 2527 (756)       
1 43508U 18053A   24113.07311089  .00000058  00000+0  00000+0 0  9998
2 43508  65.1827 100.2087 0009711 245.6466 114.2545  2.13102448 45523
COSMOS 2529 (757)       
1 43687U 18086A   24113.64149837  .00000002  00000+0  00000+0 0  9994
2 43687  64.2999 219.1633 0009098 259.5573 100.3483  2.13102120 42542
COSMOS 2534 (758)       
1 44299U 19030A   24113.58453169  .00000001  00000+0  00000+0 0  9992
2 44299  64.3728 219.1134 0011174 283.0759 167.3349  2.13102323 38189
COSMOS 2544 (759)       
1 44850U 19088A   24113.48634286  .00000055  00000+0  00000+0 0  9997
2 44850  65.1693 100.0330 0015297 262.4312  97.3954  2.13102175 33975
COSMOS 2545 (760)       
1 45358U 20018A   24113.21416970 -.00000047  00000+0  00000+0 0  9997
2 45358  64.7658 339.9011 0007095 251.9352 108.0467  2.13102695 31916
COSMOS 2547 (705K)      
1 46805U 20075A   24113.40173571 -.00000001  00000+0  00000+0 0  9996
2 46805  64.6015 218.7444 0007164 237.6203 122.3179  2.13103200 27161
COSMOS 2557 (706K)      
1 52984U 22075A   24113.09703082 -.00000050  00000+0  00000+0 0  9998
2 52984  64.6906 342.0409 0011267 287.3774  72.5590  2.13102033 13960
COSMOS 2559 (707K)      
1 54031U 22130A   24113.03974008 -.00000050  00000+0  00000+0 0  9997
2 54031  64.6621 342.1624 0004806 224.2068 135.8141  2.13101373 11932
COSMOS 2564 (761)       
1 54377U 22161A   24113.70038510  .00000003  00000+0  00000+0 0  9994
2 54377  64.7426 218.8290 0009421 216.4824 143.4625  2.13102122 10897
COSMOS 2569 (703K)      
1 57517U 23114A   24113.24874278  .00000054  00000+0  00000+0 0  9996
2 57517  64.8951  99.2105 0012891 295.3638  64.5028  2.13104016  5517
